0 TITAN 3C TRANSTAGE DEB
1 26526U 65108AM  13285.80006074  .00003342  00000-0  22520-1 0   394
2 26526 027.0768 109.4979 6559642 171.1444 212.1983 03.02770554150477
0 TITAN 3C TRANSTAGE DEB
1 26526U 65108AM  13285.98520218  .00003196  00000-0  18160-1 0   408
2 26526 027.0725 109.4845 6570854 171.2636 053.7663 03.02777594150479
0 TITAN 3C TRANSTAGE DEB
1 26526U 65108AM  13286.62156542  .00003845  00000-0  21279-1 0   412
2 26526 027.0757 109.1738 6572612 171.7863 027.3896 03.02784898150495
0 TITAN 3C TRANSTAGE DEB
1 26526U 65108AM  13286.92390909  .00003484  00000-0  18414-1 0   429
2 26526 027.0649 109.0573 6575446 171.9894 356.8952 03.02786213150503
0 TITAN 3C TRANSTAGE DEB
1 26526U 65108AM  13292.71715485  .00001747  00000-0  10542-1 0   438
2 26526 027.0851 106.1850 6570017 176.7853 192.0545 03.02812250150689
0 TITAN 3C TRANSTAGE DEB
1 26526U 65108AM  13294.18710494  .00002474  00000-0  14135-1 0   447
2 26526 027.0969 105.4806 6572996 177.9243 354.5232 03.02852370150726
0 TITAN 3C TRANSTAGE DEB
1 26526U 65108AM  13295.83822853  .00002674  00000-0  15069-1 0   453
2 26526 027.1135 104.6547 6573367 179.2860 354.6461 03.02863742150773
